NORAD_CAT_ID,OBJECT_NAME,OBJECT_TYPE,EPOCH,MEAN_MOTION,ECCENTRICITY,INCLINATION,RA_OF_ASC_NODE,ARG_OF_PERICENTER,MEAN_ANOMALY,BSTAR,MEAN_MOTION_DOT,MEAN_MOTION_DDOT,TLE_LINE0,TLE_LINE1,TLE_LINE2,SEMIMAJOR_AXIS,PERIOD,APOGEE,PERIGEE,DECAYED
52491.0,STARLINK-3908,PAYLOAD,2024-05-27 03:58:08,15.08840982,0.0001132,53.2175,93.9275,106.2449,253.8668,0.00016205,2.292e-05,0.0,0 STARLINK-3908,1 52491U 22049AS  24148.16538107  .00002292  00000-0  16205-3 0  9990,2 52491  53.2175  93.9275 0001132 106.2449 253.8668 15.08840982114193,6917.877,95.437,540.525,538.959,0.0
52491.0,STARLINK-3908,PAYLOAD,2024-05-27 13:30:28,15.08823143,6.27e-05,53.2173,92.144,66.0808,294.0249,0.00010214,1.338e-05,0.0,0 STARLINK-3908,1 52491U 22049AS  24148.56283324  .00001338  00000-0  10214-3 0  9996,2 52491  53.2173  92.1440 0000627  66.0808 294.0249 15.08823143114097,6917.932,95.439,540.231,539.363,0.0
52491.0,STARLINK-3908,PAYLOAD,2024-05-28 03:48:56,15.08843654,0.0001117,53.2177,89.4683,107.2818,252.8297,2.9587e-05,1.83e-06,0.0,0 STARLINK-3908,1 52491U 22049AS  24149.15898465  .00000183  00000-0  29587-4 0  9991,2 52491  53.2177  89.4683 0001117 107.2818 252.8297 15.08843654114345,6917.869,95.437,540.507,538.961,0.0
52491.0,STARLINK-3908,PAYLOAD,2024-05-28 13:21:14,15.08845057,0.0001076,53.2175,87.6837,115.7429,244.3674,4.3311e-05,4.02e-06,0.0,0 STARLINK-3908,1 52491U 22049AS  24149.55642127  .00000402  00000-0  43311-4 0  9992,2 52491  53.2175  87.6837 0001076 115.7429 244.3674 15.08845057114243,6917.865,95.437,540.474,538.986,0.0
52491.0,STARLINK-3908,PAYLOAD,2024-05-29 02:04:20,15.08844977,0.0001116,53.2183,85.3025,88.6186,271.4934,-3.3855e-05,-8.27e-06,0.0,0 STARLINK-3908,1 52491U 22049AS  24150.08634538 -.00000827  00000-0 -33855-4 0  9994,2 52491  53.2183  85.3025 0001116  88.6186 271.4934 15.08844977114328,6917.865,95.437,540.502,538.958,0.0
52491.0,STARLINK-3908,PAYLOAD,2024-05-29 19:33:34,15.08829572,9.18e-05,53.217,82.0348,82.1111,277.9986,0.00013842,1.915e-05,0.0,0 STARLINK-3908,1 52491U 22049AS  24150.81498683  .00001915  00000-0  13842-3 0  9994,2 52491  53.2170  82.0348 0000918  82.1111 277.9986 15.08829572114593,6917.912,95.438,540.412,539.142,0.0
52491.0,STARLINK-3908,PAYLOAD,2024-05-29 22:44:21,15.08811752,0.0001091,53.2171,81.4398,113.8056,246.305,0.00036791,5.568e-05,0.0,0 STARLINK-3908,1 52491U 22049AS  24150.94746724  .00005568  00000-0  36791-3 0  9996,2 52491  53.2171  81.4398 0001091 113.8056 246.3050 15.08811752114453,6917.967,95.439,540.586,539.077,0.0
52491.0,STARLINK-3908,PAYLOAD,2024-05-30 05:05:53,15.08839791,9.38e-05,53.2176,80.2493,81.9613,278.1486,9.3349e-05,1.198e-05,0.0,0 STARLINK-3908,1 52491U 22049AS  24151.21242365  .00001198  00000-0  93349-4 0  9997,2 52491  53.2176  80.2493 0000938  81.9613 278.1486 15.08839791114655,6917.881,95.438,540.395,539.097,0.0
52491.0,STARLINK-3908,PAYLOAD,2024-05-31 01:45:54,15.08838281,0.000135,53.219,76.3836,99.9508,260.1636,2.7775e-05,1.54e-06,0.0,0 STARLINK-3908,1 52491U 22049AS  24152.07354673  .00000154  00000-0  27775-4 0  9999,2 52491  53.2190  76.3836 0001350  99.9508 260.1636 15.08838281114627,6917.886,95.438,540.685,538.817,0.0
52491.0,STARLINK-3908,PAYLOAD,2024-05-31 19:15:08,15.08838094,0.000131,53.2193,73.1147,88.7565,271.3577,3.0988e-05,2.05e-06,0.0,0 STARLINK-3908,1 52491U 22049AS  24152.80218743  .00000205  00000-0  30988-4 0  9994,2 52491  53.2193  73.1147 0001310  88.7565 271.3577 15.08838094114894,6917.886,95.438,540.657,538.845,0.0
52491.0,STARLINK-3908,PAYLOAD,2024-05-31 22:25:55,15.0883949,0.0001314,53.2193,72.52,88.7242,271.39,4.0458e-05,3.56e-06,0.0,0 STARLINK-3908,1 52491U 22049AS  24152.93466630  .00000356  00000-0  40458-4 0  9998,2 52491  53.2193  72.5200 0001314  88.7242 271.3900 15.08839490114759,6917.882,95.438,540.656,538.838,0.0
52491.0,STARLINK-3908,PAYLOAD,2024-06-01 01:36:41,15.08845706,0.0001275,53.2188,71.9243,86.0644,274.0494,5.1288e-05,5.29e-06,0.0,0 STARLINK-3908,1 52491U 22049AS  24153.06714190  .00000529  00000-0  51288-4 0  9995,2 52491  53.2188  71.9243 0001275  86.0644 274.0494 15.08845706114931,6917.863,95.437,540.61,538.846,0.0
52491.0,STARLINK-3908,PAYLOAD,2024-06-01 11:09:00,15.08835309,0.0001271,53.2185,70.1404,86.3445,273.7692,8.4588e-05,1.058e-05,0.0,0 STARLINK-3908,1 52491U 22049AS  24153.46458729  .00001058  00000-0  84588-4 0  9999,2 52491  53.2185  70.1404 0001271  86.3445 273.7692 15.08835309114996,6917.895,95.438,540.639,538.88,0.0
52491.0,STARLINK-3908,PAYLOAD,2024-06-02 10:59:48,15.08832764,0.000138,53.2192,65.6818,86.7873,273.3277,-1.7716e-05,-5.7e-06,0.0,0 STARLINK-3908,1 52491U 22049AS  24154.45819602 -.00000570  00000-0 -17716-4 0  9999,2 52491  53.2192  65.6818 0001380  86.7873 273.3277 15.08832764115147,6917.903,95.438,540.722,538.813,0.0
52491.0,STARLINK-3908,PAYLOAD,2024-06-03 02:53:38,15.08844863,0.0001277,53.2178,62.7068,87.7859,272.3279,6.3206e-05,7.18e-06,0.0,0 STARLINK-3908,1 52491U 22049AS  24155.12058629  .00000718  00000-0  63206-4 0  9995,2 52491  53.2178  62.7068 0001277  87.7859 272.3279 15.08844863115241,6917.866,95.437,540.614,538.847,0.0
52491.0,STARLINK-3908,PAYLOAD,2024-06-03 10:50:34,15.08839467,0.000153,53.2182,61.2171,77.8351,282.2813,2.002e-05,3.1e-07,0.0,0 STARLINK-3908,1 52491U 22049AS  24155.45179215  .00000031  00000-0  20020-4 0  9991,2 52491  53.2182  61.2171 0001530  77.8351 282.2813 15.08839467115297,6917.882,95.438,540.805,538.689,0.0
52491.0,STARLINK-3908,PAYLOAD,2024-06-04 10:41:22,15.0883619,0.0001801,53.2174,56.759,79.2332,280.8863,3.1577e-05,2.14e-06,0.0,0 STARLINK-3908,1 52491U 22049AS  24156.44539627  .00000214  00000-0  31577-4 0  9990,2 52491  53.2174  56.7590 0001801  79.2332 280.8863 15.08836190115286,6917.892,95.438,541.003,538.511,0.0
52491.0,STARLINK-3908,PAYLOAD,2024-06-04 23:24:27,15.08840042,0.0001392,53.2177,54.3797,80.0292,280.0857,3.3272e-08,-2.87e-06,0.0,0 STARLINK-3908,1 52491U 22049AS  24156.97531319 -.00000287  00000-0  33272-7 0  9996,2 52491  53.2177  54.3797 0001392  80.0292 280.0857 15.08840042115367,6917.88,95.438,540.708,538.782,0.0
52491.0,STARLINK-3908,PAYLOAD,2024-06-05 02:35:12,15.08850941,0.0001367,53.2193,53.7832,84.7504,275.3644,-7.7771e-06,-4.12e-06,0.0,0 STARLINK-3908,1 52491U 22049AS  24157.10778625 -.00000412  00000-0 -77771-5 0  9996,2 52491  53.2193  53.7832 0001367  84.7504 275.3644 15.08850941115547,6917.847,95.437,540.658,538.766,0.0
52491.0,STARLINK-3908,PAYLOAD,2024-06-05 10:32:09,15.08835384,0.0001827,53.2187,52.2975,88.949,271.1712,-1.2697e-05,-4.9e-06,0.0,0 STARLINK-3908,1 52491U 22049AS  24157.43899643 -.00000490  00000-0 -12697-4 0  9997,2 52491  53.2187  52.2975 0001827  88.9490 271.1712 15.08835384115592,6917.894,95.438,541.023,538.496,0.0
52491.0,STARLINK-3908,PAYLOAD,2024-06-05 23:15:14,15.08838175,0.0001438,53.2184,49.9171,94.0171,266.0986,-4.0007e-05,-9.25e-06,0.0,0 STARLINK-3908,1 52491U 22049AS  24157.96891401 -.00000925  00000-0 -40007-4 0  9998,2 52491  53.2184  49.9171 0001438  94.0171 266.0986 15.08838175115511,6917.886,95.438,540.746,538.756,0.0
52491.0,STARLINK-3908,PAYLOAD,2024-06-06 10:22:55,15.08846618,0.0001404,53.219,47.8381,96.4104,263.7048,-4.1904e-05,-9.55e-06,0.0,0 STARLINK-3908,1 52491U 22049AS  24158.43258906 -.00000955  00000-0 -41904-4 0  9998,2 52491  53.2190  47.8381 0001404  96.4104 263.7048 15.08846618115742,6917.86,95.437,540.696,538.754,0.0
52491.0,STARLINK-3908,PAYLOAD,2024-06-07 22:56:48,15.08842011,0.0002935,53.2131,40.9983,93.2298,266.903,9.2961e-05,1.191e-05,0.0,0 STARLINK-3908,1 52491U 22049AS  24159.95611347  .00001191  00000-0  92961-4 0  9998,2 52491  53.2131  40.9983 0002935  93.2298 266.9030 15.08842011115815,6917.874,95.437,541.77,537.709,0.0
52491.0,STARLINK-3908,PAYLOAD,2024-06-08 02:07:34,15.08837542,0.0001549,53.2178,40.4022,87.2262,272.8908,4.6718e-05,4.56e-06,0.0,0 STARLINK-3908,1 52491U 22049AS  24160.08859605  .00000456  00000-0  46718-4 0  9997,2 52491  53.2178  40.4022 0001549  87.2262 272.8908 15.08837542115991,6917.888,95.438,540.824,538.681,0.0
52491.0,STARLINK-3908,PAYLOAD,2024-06-08 08:29:07,15.08835328,0.0001469,53.2179,39.2127,84.36,275.756,8.8863e-05,1.126e-05,0.0,0 STARLINK-3908,1 52491U 22049AS  24160.35355705  .00001126  00000-0  88863-4 0  9991,2 52491  53.2179  39.2127 0001469  84.3600 275.7560 15.08835328115872,6917.895,95.438,540.776,538.743,0.0
52491.0,STARLINK-3908,PAYLOAD,2024-06-08 22:47:34,15.08843883,8.51e-05,53.2167,36.5369,81.0122,279.0966,4.764e-05,4.71e-06,0.0,0 STARLINK-3908,1 52491U 22049AS  24160.94970884  .00000471  00000-0  47640-4 0  9997,2 52491  53.2167  36.5369 0000851  81.0122 279.0966 15.08843883115966,6917.869,95.437,540.322,539.145,0.0
52491.0,STARLINK-3908,PAYLOAD,2024-06-09 00:22:57,15.08848256,0.0001574,53.2199,36.242,81.8005,278.3166,0.00018007,2.58e-05,0.0,0 STARLINK-3908,1 52491U 22049AS  24161.01594275  .00002580  00000-0  18007-3 0  9999,2 52491  53.2199  36.2420 0001574  81.8005 278.3166 15.08848256116130,6917.855,95.437,540.809,538.631,0.0
52491.0,STARLINK-3908,PAYLOAD,2024-06-09 21:03:00,15.08830341,0.0001331,53.2186,32.3728,81.569,278.5453,-2.7772e-05,-7.3e-06,0.0,0 STARLINK-3908,1 52491U 22049AS  24161.87708342 -.00000730  00000-0 -27772-4 0  9992,2 52491  53.2186  32.3728 0001331  81.5690 278.5453 15.08830341116263,6917.91,95.438,540.696,538.854,0.0
52491.0,STARLINK-3908,PAYLOAD,2024-06-09 22:38:23,15.08832602,0.0001215,53.2169,32.0766,59.8621,300.2491,-7.699e-06,-4.1e-06,0.0,0 STARLINK-3908,1 52491U 22049AS  24161.94332228 -.00000410  00000-0 -76990-5 0  9998,2 52491  53.2169  32.0766 0001215  59.8621 300.2491 15.08832602116117,6917.903,95.438,540.609,538.927,0.0
52491.0,STARLINK-3908,PAYLOAD,2024-06-10 08:10:41,15.08835364,0.0001241,53.2179,30.2944,77.5853,282.5278,-6.679e-05,-1.351e-05,0.0,0 STARLINK-3908,1 52491U 22049AS  24162.34076388 -.00001351  00000-0 -66790-4 0  9996,2 52491  53.2179  30.2944 0001241  77.5853 282.5278 15.08835364116178,6917.895,95.438,540.618,538.901,0.0
